OBJECT_NAME,OBJECT_ID,EPOCH,MEAN_MOTION,ECCENTRICITY,INCLINATION,RA_OF_ASC_NODE,ARG_OF_PERICENTER,MEAN_ANOMALY,EPHEMERIS_TYPE,CLASSIFICATION_TYPE,NORAD_CAT_ID,ELEMENT_SET_NO,REV_AT_EPOCH,BSTAR,MEAN_MOTION_DOT,MEAN_MOTION_DDOT
SWARM A,2013-067B,2026-06-06T12:11:54.868416,15.50737711,.00030107,87.3328,60.2076,91.4796,268.6809,0,U,39452,999,70459,.23350111E-3,.13467E-3,0
SWARM C,2013-067C,2026-06-06T12:11:45.323808,15.50740115,.00029881,87.3327,58.7889,91.4658,268.6945,0,U,39453,999,70455,.23688105E-3,.13663E-3,0
BRITE-CA1 (TORONTO),2014-033L,2026-06-06T15:24:50.450112,14.72662532,.00775389,97.9728,286.7655,311.3532,48.1023,0,U,40020,999,64066,.1273998E-3,.796E-5,0
OCO 2,2014-035A,2026-06-06T13:55:41.223072,14.57102592,.00014798,98.2015,99.0352,87.8492,272.2876,0,U,40059,999,63450,.11647683E-3,.479E-5,0
BRITE-PL2 (HEWELIUSZ),2014-049B,2026-06-06T04:37:17.262624,14.94554868,.00150514,97.9087,269.1089,141.6770,218.5523,0,U,40119,999,63980,.30174932E-3,.321E-4,0
MMS 1,2015-011A,2026-06-06T16:00:01.999584,0.28260054,.8350597,72.1886,348.9045,167.0769,306.0107,0,U,40482,999,138,0,-.235E-5,0
MMS 2,2015-011B,2026-06-06T16:00:01.999584,0.28260094,.83513719,72.1888,348.9067,167.0826,305.9991,0,U,40483,999,138,0,-.235E-5,0
MMS 3,2015-011C,2026-06-06T16:00:01.999584,0.28260087,.83505654,72.1918,348.9113,167.0771,305.9957,0,U,40484,999,138,0,-.234E-5,0
MMS 4,2015-011D,2026-06-06T16:00:01.999584,0.28260100,.83501636,72.1881,348.9070,167.0848,305.9840,0,U,40485,999,138,0,-.234E-5,0
ASTROSAT,2015-052A,2026-06-06T14:19:18.437088,14.82490268,.00085184,5.9953,231.5952,246.3918,113.5315,0,U,40930,999,57825,.13577144E-3,.1788E-4,0
DAMPE,2015-078A,2026-06-06T13:53:19.020768,15.30757980,.00135859,97.4560,162.9940,109.6617,250.6091,0,U,41173,999,58292,.51155179E-4,.1446E-4,0
PISAT,2016-059B,2026-06-06T05:53:26.661408,14.68964793,.00276648,97.8178,158.1687,239.0281,120.8207,0,U,41784,999,51813,.19118586E-3,.1079E-4,0
HXMT (HUIYAN),2017-034A,2026-06-06T14:37:42.534912,15.18399285,.00301664,43.0132,241.9386,77.2037,283.2179,0,U,42758,999,49605,.28292986E-3,.5754E-4,0
FLYING LAPTOP,2017-042G,2026-06-06T14:04:51.521088,15.01075819,.00190178,97.4649,313.5308,156.3725,203.8377,0,U,42831,999,48486,.35115415E-3,.4451E-4,0
ZHANGHENG 1-01 (CSES-1),2018-015C,2026-06-06T14:40:03.620928,15.20675614,.00172514,97.6868,323.0604,306.0457,53.9178,0,U,43194,999,46303,.4080924E-3,.8929E-4,0
SALSAT,2020-068K,2026-06-06T06:53:14.239104,15.29640191,.00091918,97.8852,159.6892,351.5700,8.5383,0,U,46495,999,31369,.37345248E-3,.10659E-3,0
IXPE,2021-121A,2026-06-06T14:00:04.000032,15.10154363,.00074498,0.2311,37.6039,281.2242,183.1499,0,U,49954,999,578,.59668066E-3,.10967E-3,0
SMILE,2026-109A,2026-05-24T15:40:35.120928,14.57062785,.00091232,70.0007,229.2745,259.5159,100.4951,0,U,69123,999,80,-.42378883E-3,-.1976E-4,0
