SWARM A                 
1 39452U 13067B   26157.50827394  .00013467  00000+0  23350-3 0  9995
2 39452  87.3328  60.2076 0003010  91.4796 268.6809 15.50737711704598
SWARM C                 
1 39453U 13067C   26157.50816347  .00013663  00000+0  23688-3 0  9994
2 39453  87.3327  58.7889 0002988  91.4658 268.6945 15.50740115704551
BRITE-CA1 (TORONTO)     
1 40020U 14033L   26157.64225058  .00000796  00000+0  12740-3 0  9998
2 40020  97.9728 286.7655 0077538 311.3532  48.1023 14.72662532640665
OCO 2                   
1 40059U 14035A   26157.58033823  .00000479  00000+0  11648-3 0  9996
2 40059  98.2015  99.0352 0001479  87.8492 272.2876 14.57102592634500
BRITE-PL2 (HEWELIUSZ)   
1 40119U 14049B   26157.19256091  .00003210  00000+0  30175-3 0  9991
2 40119  97.9087 269.1089 0015051 141.6770 218.5523 14.94554868639806
MMS 1                   
1 40482U 15011A   26157.66668981 -.00000235  00000+0  00000+0 0  9996
2 40482  72.1886 348.9045 8350597 167.0769 306.0107  0.28260054  1384
MMS 2                   
1 40483U 15011B   26157.66668981 -.00000235  00000+0  00000+0 0  9997
2 40483  72.1888 348.9067 8351371 167.0826 305.9991  0.28260094  1389
MMS 3                   
1 40484U 15011C   26157.66668981 -.00000234  00000+0  00000+0 0  9997
2 40484  72.1918 348.9113 8350565 167.0771 305.9957  0.28260087  1383
MMS 4                   
1 40485U 15011D   26157.66668981 -.00000234  00000+0  00000+0 0  9998
2 40485  72.1881 348.9070 8350163 167.0848 305.9840  0.28260100  1381
ASTROSAT                
1 40930U 15052A   26157.59674117  .00001788  00000+0  13577-3 0  9999
2 40930   5.9953 231.5952 0008518 246.3918 113.5315 14.82490268578251
DAMPE                   
1 41173U 15078A   26157.57869237  .00001446  00000+0  51155-4 0  9990
2 41173  97.4560 162.9940 0013585 109.6617 250.6091 15.30757980582926
PISAT                   
1 41784U 16059B   26157.24544747  .00001079  00000+0  19119-3 0  9993
2 41784  97.8178 158.1687 0027664 239.0281 120.8207 14.68964793518137
HXMT (HUIYAN)           
1 42758U 17034A   26157.60952008  .00005754  00000+0  28293-3 0  9999
2 42758  43.0132 241.9386 0030166  77.2037 283.2179 15.18399285496053
FLYING LAPTOP           
1 42831U 17042G   26157.58670742  .00004451  00000+0  35115-3 0  9993
2 42831  97.4649 313.5308 0019017 156.3725 203.8377 15.01075819484866
ZHANGHENG 1-01 (CSES-1) 
1 43194U 18015C   26157.61115302  .00008929  00000+0  40809-3 0  9997
2 43194  97.6868 323.0604 0017251 306.0457  53.9178 15.20675614463032
SALSAT                  
1 46495U 20068K   26157.28697036  .00010659  00000+0  37345-3 0  9991
2 46495  97.8852 159.6892 0009191 351.5700   8.5383 15.29640191313697
IXPE                    
1 49954U 21121A   26157.58337963  .00010967  00000+0  59668-3 0  9992
2 49954   0.2311  37.6039 0007449 281.2242 183.1499 15.10154363  5787
SMILE                   
1 69123U 26109A   26144.65318427 -.00001976  00000+0 -42379-3 0  9994
2 69123  70.0007 229.2745 0009123 259.5159 100.4951 14.57062785   802
